C/2012 L2 (LINEAR),e,70.9451,270.3227,205.8482,637.2822,0.0000613,0.99762809,0.0000,05/09.2810/2013,2000,g 10.0,4.0
# From MPC 84023
C/2012 L3 (LINEAR),e,134.1512,53.4530,106.9407,307.5725,0.0001827,0.99011594,0.0000,06/11.5312/2012,2000,g 13.0,4.0
# From MPC 96864
C/2012 LP26 (Palomar),e,25.3799,153.9872,145.1451,14153,0.0000006,0.99953819,0.0000,08/16.4843/2015,2000,g  6.5,4.0
# From MPC 88326
P/2012 NJ (La Sagra),e,84.3843,315.7638,338.3055,8.461309,0.0400449,0.84762203,53.9216,02/19.0/2016,2000,g 14.5,4.0
# From MPC 84625
C/2012 OP (Siding Spring),e,114.8272,267.3325,351.3259,731.5598,0.0000498,0.99507228,0.0000,12/03.9617/2012,2000,g 13.5,2.0
# From MPC 81470
P/2012 O1 (McNaught),e,7.4930,93.7344,237.0263,3.516141,0.1494874,0.60304091,195.1647,02/19.0/2016,2000,g 17.5,4.0
# From MPC 80899
P/2012 O2 (McNaught),e,24.5123,120.7519,183.4849,3.615409,0.1433732,0.53341724,191.8897,02/19.0/2016,2000,g 17.0,4.0
# From MPC 82720
P/2012 O3 (McNaught),e,16.5771,336.4080,344.6978,4.581249,0.1005144,0.64548780,129.1849,02/19.0/2016,2000,g 16.5,4.0
# From MPC 90767
C/2012 Q1 (Kowalski),e,45.2309,184.4294,139.0747,25.99466,0.0074367,0.63549909,10.9661,02/19.0/2016,2000,g  4.0,4.0
# From MPC 89726
C/2012 S1 (ISON),h,11/28.5124/2013,62.2167,295.7315,345.6102,1.000263,0.012886,2000,8.5,3.2
# From MPC 82720
P/2012 S2 (La Sagra),e,8.6243,51.7616,312.3527,4.402346,0.1067033,0.69268577,136.6423,02/19.0/2016,2000,g 17.0,4.0
# From MPC 88327
C/2012 S3 (PANSTARRS),e,112.9377,121.2968,183.6853,12120,0.0000007,0.99980964,0.0000,08/30.7395/2013,2000,g 10.0,4.0
# From MPC 88327
C/2012 S4 (PANSTARRS),h,06/27.8628/2013,126.5606,173.1197,163.5750,1.000274,4.345532,2000,8.5,4.0
# From MPC 82720
P/2012 SB6 (Lemmon),e,11.0650,9.1191,12.2383,3.889449,0.1284908,0.39059271,154.7025,02/19.0/2016,2000,g 14.0,4.0
# From MPC 88694
P/2012 T1 (PANSTARRS),e,11.0576,85.7274,299.9931,3.148956,0.1763820,0.23728737,221.8656,02/19.0/2016,2000,g 15.0,4.0
# From MPC 82320
P/2012 T2 (PANSTARRS),e,12.5550,73.7469,310.9670,5.746464,0.0715489,0.16062809,73.6405,02/19.0/2016,2000,g 10.0,4.0
# From MPC 80900
P/2012 T3 (PANSTARRS),e,9.5443,114.4038,195.4975,6.164643,0.0643935,0.61475007,89.8944,02/19.0/2016,2000,g 15.0,4.0
# From MPC 84023
C/2012 T4 (McNaught),e,24.1060,99.4227,219.8578,119.9310,0.0007504,0.98370440,0.0000,10/10.4166/2012,2000,g 13.5,4.0
# From MPC 84023
C/2012 T5 (Bressi),h,02/24.0958/2013,72.1911,230.3808,318.1434,1.000369,0.322556,2000,13.0,4.0
# From MPC 82720
C/2012 T6 (Kowalski),e,33.3220,186.1279,198.0178,14.12560,0.0185650,0.87441696,23.6371,02/19.0/2016,2000,g 15.0,4.0
# From MPC 87914
P/2012 TK8 (Tenagra),e,6.2825,289.4737,126.8128,4.171787,0.1156700,0.26577788,118.0241,02/19.0/2016,2000,g 13.0,4.0
# From MPC 95208
C/2012 U1 (PANSTARRS),e,56.3414,26.9742,70.1459,5074,0.0000027,0.99896219,0.0000,07/05.3715/2014,2000,g  7.5,4.0
# From MPC 82720
P/2012 U2 (PANSTARRS),e,10.7183,185.2547,228.9013,7.188366,0.0511398,0.50099456,60.6594,02/19.0/2016,2000,g 12.5,4.0
# From MPC 84024
P/2012 US27 (Siding Spring),e,39.2891,49.1927,1.1958,5.171851,0.0837983,0.64780540,92.7078,02/19.0/2016,2000,g 13.5,4.0
# From MPC 84932
C/2012 V1 (PANSTARRS),e,157.8380,85.3630,123.2271,2490,0.0000079,0.99916160,0.0000,07/21.1744/2013,2000,g 12.0,4.0
# From MPC 88695
C/2012 V2 (LINEAR),e,67.1641,262.1753,217.3749,742.2961,0.0000487,0.99803656,0.0000,08/16.4737/2013,2000,g  9.0,4.0
# From MPC 82721
P/2012 WA34 (Lemmon-PANSTARRS),e,6.1200,94.5137,352.8557,4.785879,0.0941373,0.33686247,105.6786,02/19.0/2016,2000,g 13.5,4.0
# From MPC 97494
C/2012 X1 (LINEAR),e,44.3606,113.1219,132.0913,158.0638,0.0004960,0.98989368,0.0000,02/21.7208/2014,2000,g  4.8,3.6
# From MPC 88327
C/2012 X2 (PANSTARRS),e,34.1207,271.0377,215.7464,20.61090,0.0105332,0.76935879,11.1039,02/19.0/2016,2000,g  9.0,4.0
# From MPC 83521
C/2012 Y1 (LINEAR),e,20.9183,193.1781,269.0264,37.96182,0.0042139,0.94670505,4.7498,02/19.0/2016,2000,g 15.0,4.0
# From MPC 83521
C/2012 Y3 (McNaught),e,73.4580,122.6587,235.7081,27.95555,0.0066681,0.93655635,8.5018,02/19.0/2016,2000,g 11.0,4.0
# From MPC 97494
C/2013 A1 (Siding Spring),h,10/25.2070/2014,129.0357,300.9943,2.4443,1.000132,1.399584,2000,8.2,2.4
# From MPC 84024
P/2013 A2 (Scotti),e,3.3656,355.7999,134.6906,4.006019,0.1229234,0.45564470,136.0114,02/19.0/2016,2000,g 15.5,4.0
# From MPC 82721
P/2013 AL76 (Catalina),e,144.8618,145.9504,27.2769,6.504723,0.0594102,0.68495430,69.0544,02/19.0/2016,2000,g 16.0,4.0
# From MPC 87915
C/2013 B2 (Catalina),h,07/01.4984/2013,43.4618,331.9527,156.5124,1.001461,3.738168,2000,11.0,4.0
# From MPC 97494
C/2013 C2 (Tenagra),e,21.3376,247.5292,308.8458,16.06861,0.0153016,0.43173384,2.6215,02/19.0/2016,2000,g  4.0,4.0
# From MPC 86642
P/2013 CU129 (PANSTARRS),e,12.1529,46.2171,211.9305,2.877364,0.2019351,0.72225667,187.0183,02/19.0/2016,2000,g 18.0,2.0
# From MPC 84024
C/2013 D1 (Holvorcem),e,10.0890,294.9639,252.7067,11.28145,0.0260110,0.78184451,27.0743,02/19.0/2016,2000,g 14.0,4.0
# From MPC 90270
C/2013 E1 (McNaught),e,158.7159,134.0358,311.6308,12001,0.0000007,0.99935083,0.0000,06/14.4469/2013,2000,g  5.5,4.0
# From MPC 88327
C/2013 E2 (Iwamoto),e,21.8727,182.5070,95.6932,217.3037,0.0003077,0.99351423,0.0000,03/09.1606/2013,2000,g 11.5,4.0
# From MPC 88695
P/2013 EW90 (Tenagra),e,31.8072,160.3340,346.4318,4.111605,0.1182189,0.19619085,144.6159,02/19.0/2016,2000,g 12.0,4.0
# From MPC 84626
C/2013 F1 (Boattini),h,12/02.3175/2012,79.6074,30.0771,92.0250,1.002569,1.861611,2000,13.0,4.0
# From MPC 88695
C/2013 F2 (Catalina),e,61.7776,344.2679,123.1169,1391,0.0000190,0.99552312,0.0000,04/19.1483/2013,2000,g  7.0,4.0
# From MPC 84933
C/2013 F3 (McNaught),e,85.4707,266.0780,18.7170,573.4215,0.0000718,0.99607263,0.0000,05/24.9628/2013,2000,g 12.0,4.0
# From MPC 91612
P/2013 G1 (Kowalski),e,5.4707,221.4495,51.1959,6.876180,0.0546617,0.51268133,43.7424,02/19.0/2016,2000,g 11.0,4.0
# From MPC 84933
C/2013 G2 (McNaught),h,12/06.4326/2012,95.9698,274.0686,293.8327,1.000131,2.150299,2000,11.5,4.0
# From MPC 96864
C/2013 G3 (PANSTARRS),h,11/15.2530/2014,64.6750,208.1129,76.5084,1.000906,3.852164,2000,9.0,4.0
# From MPC 84025
P/2013 G4 (PANSTARRS),e,5.9249,339.7413,214.5632,4.435037,0.1055257,0.41093512,116.4315,02/19.0/2016,2000,g 15.0,4.0
# From MPC 84318
C/2013 G5 (Catalina),e,40.6064,144.2262,165.6678,9134,0.0000011,0.99989839,0.0000,09/01.2276/2013,2000,g 14.0,4.0
# From MPC 87478
C/2013 G6 (Lemmon),e,124.1070,44.5606,215.7275,360.7796,0.0001438,0.99431588,0.0000,07/25.0873/2013,2000,g 13.5,4.0
# From MPC 95209
C/2013 G7 (McNaught),e,105.1010,48.3779,218.2903,1532,0.0000164,0.99694598,0.0000,03/18.8297/2014,2000,g  7.5,4.0
# From MPC 95209
C/2013 G8 (PANSTARRS),e,27.6264,240.9875,80.1267,1816,0.0000127,0.99717004,0.0000,11/14.3876/2013,2000,g  8.5,4.0
# From MPC 97494
C/2013 G9 (Tenagra),h,01/15.2430/2015,146.2516,35.7378,205.0510,1.000472,5.338792,2000,7.0,4.0
# From MPC 84933
C/2013 H1 (La Sagra),e,27.0779,84.9279,136.6118,192.0009,0.0003705,0.98621963,0.0000,05/19.9354/2013,2000,g 13.0,4.0
# From MPC 94670
C/2013 H2 (Boattini),e,128.3884,262.7247,35.9917,9097,0.0000011,0.99917559,0.0000,01/23.0315/2014,2000,g  6.5,4.0
# From MPC 91613
P/2013 J2 (McNaught),e,15.4967,289.3936,37.8768,6.236462,0.0632844,0.65545640,57.6121,02/19.0/2016,2000,g 13.0,4.0
# From MPC 87916
C/2013 J3 (McNaught),e,118.2067,200.7480,320.9563,1079,0.0000278,0.99630019,0.0000,02/22.2454/2013,2000,g 10.0,4.0
# From MPC 87066
P/2013 J4 (PANSTARRS),e,5.0352,84.0011,118.7706,2.475100,0.2531133,0.23099371,359.9443,11/04.0/2013,2000,g 14.0,4.0
# From MPC 84319
C/2013 J5 (Boattini),e,136.0095,256.7448,19.1269,1392,0.0000190,0.99647574,0.0000,11/29.0183/2012,2000,g 10.0,4.0
# From MPC 84627
C/2013 J6 (Catalina),e,85.0176,68.3757,125.6148,59.61489,0.0021413,0.95949577,2.2387,02/19.0/2016,2000,g 14.5,4.0
# From MPC 84319
C/2013 K1 (Christensen),e,42.3569,125.8816,171.3047,76.78259,0.0014649,0.98766531,0.0000,05/29.9880/2013,2000,g 18.0,4.0
# From MPC 87916
C/2013 L2 (Catalina),e,106.7770,285.8473,1.8120,4891,0.0000029,0.99900493,0.0000,05/09.9820/2012,2000,g  8.0,4.0
# From MPC 86229
P/2013 N3 (PANSTARRS),e,2.1707,17.6742,323.8952,7.410023,0.0488624,0.59135192,36.0396,02/19.0/2016,2000,g 13.0,4.0
# From MPC 88328
C/2013 N4 (Borisov),e,37.0347,322.5918,142.3664,48.00843,0.0029630,0.97472247,0.0000,08/21.2773/2013,2000,g 12.0,4.0
# From MPC 85834
P/2013 N5 (PANSTARRS),e,23.3422,187.2349,176.9791,6.820949,0.0553270,0.73083356,53.2707,02/19.0/2016,2000,g 17.0,4.0
# From MPC 87479
P/2013 O2 (PANSTARRS),e,13.3316,207.5568,213.5454,3.819357,0.1320440,0.43986281,104.9884,02/19.0/2016,2000,g 14.0,4.0
# From MPC 90767
C/2013 O3 (McNaught),e,102.8297,276.7274,337.8960,702.6467,0.0000529,0.99547683,0.0000,09/09.6625/2013,2000,g 11.5,4.0
# From MPC 85834
P/2013 P1 (PANSTARRS),e,18.7073,160.8051,137.9390,8.565242,0.0393183,0.60476638,42.7977,02/19.0/2016,2000,g 12.0,4.0
# From MPC 93584
C/2013 P2 (PANSTARRS),e,125.6125,2.0603,104.9839,1039,0.0000294,0.99726952,0.0000,02/16.5563/2014,2000,g 11.5,4.0
# From MPC 97495
C/2013 P3 (Palomar),h,11/23.0150/2014,93.9215,177.2769,177.1387,1.001129,8.645712,2000,5.5,4.0
# From MPC 96865
C/2013 P4 (PANSTARRS),e,4.2665,256.5884,113.5281,14.71867,0.0174543,0.59464616,9.7110,02/19.0/2016,2000,g  7.5,4.0
# From MPC 88696
C/2013 PE67 (Catalina-Spacewatch),e,116.6673,325.9489,59.9232,52.63060,0.0025813,0.96443152,2.0753,02/19.0/2016,2000,g 14.0,4.0
# From MPC 94279
C/2013 R1 (Lovejoy),e,63.9825,70.6820,67.1901,536.4288,0.0000793,0.99848626,0.0000,12/22.7501/2013,2000,g  7.0,4.0
# From MPC 94671
P/2013 R3 (Catalina-PANSTARRS),e,0.8864,342.8172,9.2092,3.044247,0.1855600,0.27286665,171.3044,02/19.0/2016,2000,g 14.0,4.0
# From unp
P/2013 R3-A (Catalina-PANSTARRS),e,0.8858,342.7847,9.2483,3.044105,0.1855729,0.27283311,171.3125,02/19.0/2016,2000,g  9.0,4.0
# From MPEC 2015-M77
P/2013 R3-B (Catalina-PANSTARRS),e,0.8871,342.8392,9.1834,3.044324,0.1855529,0.27288336,171.3003,02/19.0/2016,2000,g  9.0,4.0
# From MPC 86230
